;Unnamed: 0;Unnamed: 0.1;Unnamed: 0.1.1;Unnamed: 0.1.1.1;Unnamed: 0.1.1.1.1;Unnamed: 0.1.1.1.1.1;Unnamed: 0.1.1.1.1.1.1;Unnamed: 0.1.1.1.1.1.1.1;Unnamed: 0.1.1.1.1.1.1.1.1;SEITENNAME;TYPE;DATUM_VON;DATUM_BIS;BENANNT_NACH;PROMINENTE_BEWOHNER;PROMINENTE_PERSONEN;STREET;DISTRICT;SHAPE;WEBLINK1;LONG;LAT
0;0;0;0;0;0;0;0;0;1;Dorothea-Neff-Park;Park;2007;0;Dorothea Neff;;;Bandgasse 5/1;7;POINT (16.345714016431135 48.2005820408563);https://www.geschichtewiki.wien.gv.at/?curid=33253;16.345714016431135;48.2005820408563
1;1;1;1;1;1;1;1;1;5;Zum St. Ulrich (Apotheke);Apotheke_Spital_Anstalt;1713;0;;;;Burggasse 22;7;POINT (16.35302526327066 48.204289915815366);https://www.geschichtewiki.wien.gv.at/?curid=21409;16.35302526327066;48.204289915815366
2;2;2;2;2;2;2;2;2;6;Zum goldenen Elefanten (7, Apotheke);Apotheke_Spital_Anstalt;1783;0;;;;Siebensterngasse 20;7;POINT (16.35432653570176 48.202555822982);https://www.geschichtewiki.wien.gv.at/?curid=12421;16.35432653570176;48.202555822982
3;3;3;3;3;3;3;3;3;7;Löwinger-Bühne;Firma_Verlag_Institution;1764;0;;;Cilli Löwinger,Paul Löwinger (senior),Sissy Löwinger,Willy Birgel,Heinz Rühmann,Max Böhm,Heinz Conrads,Ernst Waldbrunn,Adolf Lehner (Zirkusdirektor);Neubaugasse 36/1;7;POINT (16.3494000247669 48.20136633307758);https://www.geschichtewiki.wien.gv.at/?curid=20037;16.3494000247669;48.20136633307758
4;4;4;4;4;4;4;4;4;9;Mechitaristen;Firma_Verlag_Institution;1701;0;Mechithar von Sebaste;;;Mechitaristengasse 2;7;POINT (16.354299614872517 48.2055570467795);https://www.geschichtewiki.wien.gv.at/?curid=28994;16.354299614872517;48.2055570467795
5;5;5;5;5;5;5;5;5;10;Museum der Mechitaristen-Kongregation;Firma_Verlag_Institution;1811;0;;;;Mechitaristengasse 4;7;POINT (16.354198717006067 48.20595438330766);https://www.geschichtewiki.wien.gv.at/?curid=14661;16.354198717006067;48.20595438330766
6;6;6;6;6;6;6;6;6;11;Museum moderner Kunst;Firma_Verlag_Institution;1962;0;;;;Museumsplatz 1(HOF E8/3);7;POINT (16.357796015446738 48.203739040605114);https://www.geschichtewiki.wien.gv.at/?curid=14827;16.357796015446738;48.20373904060512
7;7;7;7;7;7;7;7;7;12;Pädagogische Zentralbücherei;Apotheke_Spital_Anstalt;1924;2007;;;;Burggasse 14-16;7;POINT (16.354192185866353 48.2042151845777);https://www.geschichtewiki.wien.gv.at/?curid=1835;16.354192185866353;48.2042151845777
8;8;8;8;8;8;8;8;8;13;Pädagogisches Institut der Stadt Wien;Firma_Verlag_Institution;1923;2007;;;Otto Glöckel,Viktor Fadrus (Vater),Karl Bühler,Alfred Adler,Charlotte Bühler,Wilhelm Jerusalem,Hans Kelsen,Max Adler (Soziologe);Burggasse 14-16;7;POINT (16.354192185866353 48.2042151845777);https://www.geschichtewiki.wien.gv.at/?curid=1830;16.354192185866353;48.2042151845777
9;9;9;9;9;9;9;9;9;14;Reichsfilmkammer, Außenstelle Wien;Firma_Verlag_Institution;1938;1945;;;;Siebensterngasse 42-44;7;POINT (16.35132431376619 48.2023526522141);https://www.geschichtewiki.wien.gv.at/?curid=47059;16.35132431376619;48.2023526522141
10;10;10;10;10;10;10;10;10;15;Rot-Weiß-Rot-Sendergruppe;Apotheke_Spital_Anstalt;1945;1955;;;;Seidengasse 13;7;POINT (16.34535044600706 48.20026298980716);https://www.geschichtewiki.wien.gv.at/?curid=29245;16.34535044600706;48.20026298980716
11;11;11;11;11;11;11;11;11;16;Tanzquartier Wien;Firma_Verlag_Institution;2001;0;;;Walter Heun;Museumsplatz 1(HOF E1/5);7;POINT (16.359121743337287 48.20353747424892);https://www.geschichtewiki.wien.gv.at/?curid=49617;16.359121743337287;48.20353747424892
12;12;12;12;12;12;12;12;12;17;Wiener Werkstätte;Firma_Verlag_Institution;1903;1932;;;Kolo Moser,Dagobert Peche,Carl Otto Czeschka,Mathilde Flögl,Anton Hanak,Gustav Klimt,Oskar Kokoschka,Carl Moll,Michael Powolny,Otto Prutscher,Egon Schiele,Julius Zimpel,Richard Joseph Luksch,Josef Hof;Neustiftgasse 32 Obj. 3;7;POINT (16.35050506561561 48.20565632670135);https://www.geschichtewiki.wien.gv.at/?curid=10549;16.35050506561561;48.20565632670135
13;13;13;13;13;13;13;13;13;26;Andreaspark;Park;1997;0;Andreasgasse;;;Andreaspark WC-ANLAGE;7;POINT (16.347498015225714 48.198755040560314);https://www.geschichtewiki.wien.gv.at/?curid=29981;16.347498015225714;48.19875504056032
14;14;14;14;14;14;14;14;14;40;Gold- und Silberschmiede-Museum;Firma_Verlag_Institution;1987;0;;;;Zieglergasse 22;7;POINT (16.34518809547955 48.199609914134236);https://www.geschichtewiki.wien.gv.at/?curid=25405;16.34518809547955;48.19960991413424
15;15;15;15;15;15;15;15;15;43;Ulrichskirche;Kirche;1211;0;St. Ulrich (Vorstadt);;;St.-Ulrichs-Platz 5;7;POINT (16.352570959505886 48.20476635284142);https://www.geschichtewiki.wien.gv.at/?curid=711;16.352570959505886;48.20476635284142
16;16;16;16;16;16;16;16;16;45;Mechitaristenkirche;Kirche;1837;0;Mechitaristen;;;Mechitaristengasse 2;7;POINT (16.354340222094947 48.205491929412304);https://www.geschichtewiki.wien.gv.at/?curid=29000;16.354340222094947;48.205491929412304
17;17;17;17;17;17;17;17;17;47;Urban-Loritz-Denkmal;Denkmal;1901;0;Urban Loritz;;;Urban-Loritz-Platz 7;7;POINT (16.33859401530327 48.20148204091174);https://www.geschichtewiki.wien.gv.at/?curid=2317;16.33859401530327;48.20148204091174
18;18;18;18;18;18;18;18;18;48;Berufsverband der bildenden Künstler Österreichs;Firma_Verlag_Institution;1955;0;;;Alfons Riedel,Erich Huber,Leo Ganzer,Christa Hauer-Fruhmann,Erhard Stöbe,Helmut Kurz-Goldenstein,Lore Heuermann,Ulrike Truger,Franz Unzeitig,Felix Kalmar,Rosa Hausleithner,Sebastian Weißenbacher;Mariahilfer Straße 84;7;POINT (16.347698707459788 48.19778572871553);https://www.geschichtewiki.wien.gv.at/?curid=30246;16.347698707459788;48.19778572871553
19;19;19;19;19;19;19;19;19;49;Bezirksmuseum Neubau;Firma_Verlag_Institution;1966;0;;;;Stiftgasse 8;7;POINT (16.354380148340578 48.20313129116888);https://www.geschichtewiki.wien.gv.at/?curid=10735;16.354380148340578;48.20313129116888
20;20;20;20;20;20;20;20;20;50;Vogelsaal;Bauwerk;1846;0;;;;Lindengasse 14/1;7;POINT (16.3530626383947 48.20094712719681);https://www.geschichtewiki.wien.gv.at/?curid=5543;16.3530626383947;48.20094712719681
21;21;21;21;21;21;21;21;21;51;Lazaristen;Firma_Verlag_Institution;1625;0;Heiliger Lazarus;;Vinzenz von Paul;Kaiserstraße 5;7;POINT (16.341329192317122 48.19685885277437);https://www.geschichtewiki.wien.gv.at/?curid=29468;16.341329192317122;48.19685885277437
22;22;22;22;22;22;22;22;22;52;Leopold Museum;Firma_Verlag_Institution;2001;0;;;Egon Schiele;Museumsplatz 1(HOF E1/21);7;POINT (16.35909401564912 48.20261504079403);https://www.geschichtewiki.wien.gv.at/?curid=49622;16.35909401564912;48.20261504079403
23;23;23;23;23;23;23;23;23;53;Literaturhaus Wien;Firma_Verlag_Institution;1991;0;;;;Seidengasse 13;7;POINT (16.34535044600706 48.20026298980716);https://www.geschichtewiki.wien.gv.at/?curid=17654;16.34535044600706;48.20026298980716
24;24;24;24;24;24;24;24;24;54;Café Eckl;Firma_Verlag_Institution;1802;1911;;;;Neubaugasse 38;7;POINT (16.34920634471394 48.20151582275927);https://www.geschichtewiki.wien.gv.at/?curid=14811;16.34920634471394;48.20151582275927
25;25;25;25;25;25;25;25;25;55;Kapuziner (Orden);Firma_Verlag_Institution;1525;0;;;Franz von Assisi;Mechitaristengasse 2;7;POINT (16.354340222094947 48.205491929412304);https://www.geschichtewiki.wien.gv.at/?curid=32407;16.354340222094947;48.205491929412304
26;26;26;26;26;26;26;26;26;56;Wildgansdenkmal (7);Denkmal;1982;0;Anton Wildgans;;;Lerchenfelder Straße 1-3 Hotel;7;POINT (16.35484401537997 48.20663604103296);https://www.geschichtewiki.wien.gv.at/?curid=11338;16.35484401537997;48.20663604103296
27;27;27;27;27;27;27;27;27;58;Café Weghuber;Firma_Verlag_Institution;1806;1865;Albert Weghuber;;;Neustiftgasse 3;7;POINT (16.35617105430219 48.20527317944676);https://www.geschichtewiki.wien.gv.at/?curid=15077;16.35617105430219;48.20527317944676
28;28;28;28;28;28;28;28;28;59;Anschlag auf das Kaufhaus Gerngroß;Anschlag;1933;0;;;;Mariahilfer Straße 38-40;7;POINT (16.35400798896044 48.19990466848028);https://www.geschichtewiki.wien.gv.at/?curid=49877;16.35400798896044;48.19990466848028
29;29;29;29;29;29;29;29;29;60;Raimunddenkmal;Denkmal;1898;0;Ferdinand Raimund;;;Weghuberpark;7;POINT (16.35685601554536 48.205680040981925);https://www.geschichtewiki.wien.gv.at/?curid=21798;16.35685601554536;48.205680040981925
30;30;30;30;30;30;30;30;30;61;Dokumentationsstelle für neuere österreichische Literatur;Firma_Verlag_Institution;1967;0;;;Victor Suchy,Rudolf Henz,Heinz Lunzer,Robert Huez;Seidengasse 13;7;POINT (16.34535044600706 48.20026298980716);https://www.geschichtewiki.wien.gv.at/?curid=47719;16.34535044600706;48.20026298980716
31;31;31;31;31;31;31;31;31;62;Lazaristenkirche (7);Kirche;1860;0;Lazaristen;;;Neubaugürtel 4;7;POINT (16.34041001574215 48.19701704123364);https://www.geschichtewiki.wien.gv.at/?curid=29472;16.34041001574215;48.19701704123364
32;32;32;32;32;32;32;32;32;63;Dramatisches Zentrum;Firma_Verlag_Institution;1972;1989;;;Horst Forester;Seidengasse 13;7;POINT (16.34535044600706 48.20026298980716);https://www.geschichtewiki.wien.gv.at/?curid=47716;16.34535044600706;48.20026298980716
33;33;33;33;33;33;33;33;33;64;Dschungel Wien;Firma_Verlag_Institution;2004;0;;;;Museumsplatz 1(HOF E1/5);7;POINT (16.359121743337287 48.20353747424892);https://www.geschichtewiki.wien.gv.at/?curid=47720;16.359121743337287;48.20353747424892
34;34;34;34;34;34;34;34;34;65;Rossebändiger (1, Maria-Theresien-Platz);Denkmal;1892;0;;;;Museumsplatz TIEFGARAGE;7;POINT (16.359936015897887 48.204105041053744);https://www.geschichtewiki.wien.gv.at/?curid=28783;16.359936015897887;48.204105041053744
35;35;35;35;35;35;35;35;35;66;Loritzdenkmal;Denkmal;1901;0;Urban Loritz;;;Urban-Loritz-Platz 7;7;POINT (16.338590015727075 48.20148004090285);https://www.geschichtewiki.wien.gv.at/?curid=18627;16.338590015727075;48.20148004090285
36;36;36;36;36;36;36;36;36;67;Stiftkirche;Kirche;1739;0;;;;Mariahilfer Straße 22-24/1;7;POINT (16.35594801523564 48.2006270412166);https://www.geschichtewiki.wien.gv.at/?curid=17928;16.35594801523564;48.2006270412166
37;37;37;37;37;37;37;37;37;68;Freier Wirtschaftsverband;Firma_Verlag_Institution;1906;0;;;Geza Szigethy;Schottenfeldgasse 24;7;POINT (16.343344961586943 48.19925409235781);https://www.geschichtewiki.wien.gv.at/?curid=25895;16.343344961586943;48.19925409235781
38;38;38;38;38;38;38;38;38;69;Freytag & Berndt;Firma_Verlag_Institution;1879;0;;;Gustav Freytag (Verleger),Wilhelm Berndt;Schottenfeldgasse 64;7;POINT (16.343278068219764 48.20382787366577);https://www.geschichtewiki.wien.gv.at/?curid=26677;16.343278068219764;48.20382787366577
39;39;39;39;39;39;39;39;39;70;Schottenfelder Kirche;Kirche;1784;0;Schottenfeld;;;Zieglergasse 33A;7;POINT (16.344717016171856 48.20159904093267);https://www.geschichtewiki.wien.gv.at/?curid=12719;16.344717016171856;48.20159904093267
40;40;40;40;40;40;40;40;40;72;Ankerhof (7);Bauwerk;1930;0;;;;Urban-Loritz-Platz 8;7;POINT (16.339027895882953 48.20128225607368);https://www.geschichtewiki.wien.gv.at/?curid=42427;16.339027895882953;48.20128225607368
41;41;41;41;41;41;41;41;41;73;Dreifaltigkeitshof (7);Bauwerk;1900;0;;;;Neustiftgasse 10/1;7;POINT (16.35395947712005 48.20547885897682);https://www.geschichtewiki.wien.gv.at/?curid=9464;16.35395947712005;48.20547885897682
42;42;42;42;42;42;42;42;42;74;Apollo-Kerzenfabrik (7);Bauwerk;1839;1876;;;;Zieglergasse 15;7;POINT (16.344942211994002 48.19895639492765);https://www.geschichtewiki.wien.gv.at/?curid=26110;16.344942211994002;48.19895639492765
43;43;43;43;43;43;43;43;43;75;Apollosaal (7);Bauwerk;1807;1876;;;;Zieglergasse 15;7;POINT (16.344942211994002 48.19895639492765);https://www.geschichtewiki.wien.gv.at/?curid=26117;16.344942211994002;48.19895639492765
44;44;44;44;44;44;44;44;44;76;Bundesmobilienverwaltung;Bauwerk;1901;0;;;;Mariahilfer Straße 88;7;POINT (16.347054945697366 48.19750407585019);https://www.geschichtewiki.wien.gv.at/?curid=12596;16.347054945697366;48.19750407585019
45;45;45;45;45;45;45;45;45;77;Effenberger-Hof;Bauwerk;1912;0;Max Effenberger;;;Schottenfeldgasse 78/1;7;POINT (16.343269653065825 48.20523099726741);https://www.geschichtewiki.wien.gv.at/?curid=11242;16.343269653065825;48.20523099726741
46;46;46;46;46;46;46;46;46;81;Elsahof;Bauwerk;1911;0;;;;Neubaugasse 25/1;7;POINT (16.348954344783394 48.200851970830556);https://www.geschichtewiki.wien.gv.at/?curid=13055;16.348954344783394;48.20085197083056
47;47;47;47;47;47;47;47;47;82;Emmahof;Bauwerk;1898;0;;Anton Langer,Emmahof;;Mariahilfer Straße 8;7;POINT (16.359713396007376 48.20144292132249);https://www.geschichtewiki.wien.gv.at/?curid=13588;16.359713396007376;48.20144292132249
48;48;48;48;48;48;48;48;48;87;Café Westend;Kaffeehaus;1890;0;;;;Mariahilfer Straße 128;7;POINT (16.340182537424653 48.196199334795146);https://www.geschichtewiki.wien.gv.at/?curid=15079;16.340182537424653;48.196199334795146
49;49;49;49;49;49;49;49;49;88;Adlerhof (7);Bauwerk;1874;0;;;;Siebensterngasse 46/10;7;POINT (16.350736897291043 48.20402501905515);https://www.geschichtewiki.wien.gv.at/?curid=14676;16.350736897291043;48.20402501905515
50;50;50;50;50;50;50;50;50;89;Esterházypalais (7);Bauwerk;1686;1754;;;;Neubaugasse 36/1;7;POINT (16.3494000247669 48.20136633307758);https://www.geschichtewiki.wien.gv.at/?curid=4091;16.3494000247669;48.20136633307758
51;51;51;51;51;51;51;51;51;90;Esterházysches Schöpfwerk (7, Kaiserstraße);Bauwerk;1821;0;;;;Kaiserstraße 54;7;POINT (16.340571004708902 48.202357707220955);https://www.geschichtewiki.wien.gv.at/?curid=4134;16.340571004708902;48.20235770722096
52;52;52;52;52;52;52;52;52;91;Argentor Werke;Bauwerk;1894;0;;;;Wimbergergasse 24;7;POINT (16.33881432173123 48.20488359941372);https://www.geschichtewiki.wien.gv.at/?curid=16819;16.33881432173123;48.20488359941372
53;53;53;53;53;53;53;53;53;93;Berchtesgadner Hof;Bauwerk;1333;1529;Probst von Berchtesgaden;;;Burggasse 22;7;POINT (16.352930991859658 48.20440306441252);https://www.geschichtewiki.wien.gv.at/?curid=30213;16.352930991859658;48.20440306441252
54;54;54;54;54;54;54;54;54;94;Bienenhof;Bauwerk;1890;0;Geschäftslokal;;;Kaiserstraße 33;7;POINT (16.34068097810688 48.200032323188694);https://www.geschichtewiki.wien.gv.at/?curid=35073;16.34068097810688;48.20003232318869
55;55;55;55;55;55;55;55;55;95;Hofstallgebäude;Bauwerk;1719;0;;;;Museumsplatz 1(HOF E1/5);7;POINT (16.359121743337287 48.20353747424892);https://www.geschichtewiki.wien.gv.at/?curid=866;16.359121743337287;48.20353747424892
56;56;56;56;56;56;56;56;56;97;Löwen-Hof;Bauwerk;1898;0;;;;Mondscheingasse 6;7;POINT (16.35141530930503 48.20162940461935);https://www.geschichtewiki.wien.gv.at/?curid=19854;16.35141530930503;48.20162940461935
57;57;57;57;57;57;57;57;57;98;Hans-Binder-Hof;Bauwerk;1962;0;Hans-Binder-Hof;;;Lindengasse 61-63/2;7;POINT (16.34446670463047 48.199088001403524);https://www.geschichtewiki.wien.gv.at/?curid=3603;16.34446670463047;48.19908800140352
58;58;58;58;58;58;58;58;58;99;Hauptbücherei;Bauwerk;2000;0;;;;Seidengasse 45;7;POINT (16.338356286258147 48.20001962128037);https://www.geschichtewiki.wien.gv.at/?curid=30972;16.338356286258147;48.20001962128037
59;59;59;59;59;59;59;59;59;101;Hotel Wimberger;Bauwerk;1873;0;;;;Neubaugürtel 34-36(HOTEL WIMBERGER);7;POINT (16.33836922252179 48.20052629974443);https://www.geschichtewiki.wien.gv.at/?curid=11501;16.33836922252179;48.20052629974443
60;60;60;60;60;60;60;60;60;104;Industrie-Hof (7);Bauwerk;1901;0;Verwendungszweck;;;Burggasse 58;7;POINT (16.34852982226048 48.204357308165946);https://www.geschichtewiki.wien.gv.at/?curid=39878;16.34852982226048;48.204357308165946
61;61;61;61;61;61;61;61;61;105;Lichtenbergsches Etablissement;Bauwerk;1794;1847;;;;Westbahnstraße 16;7;POINT (16.346219918268535 48.20186991727784);https://www.geschichtewiki.wien.gv.at/?curid=14685;16.346219918268535;48.20186991727784
62;62;62;62;62;62;62;62;62;106;Invalidenhaus (16);Apotheke_Spital_Anstalt;1874;1909;;;;U-Bahn Station Thaliastraße STATION;7;POINT (16.338141773296897 48.2082030115944);https://www.geschichtewiki.wien.gv.at/?curid=14228;16.338141773296897;48.2082030115944
63;63;63;63;63;63;63;63;63;107;Studentenheim (7, Neustiftgasse);Bauwerk;1998;0;;;;Neustiftgasse 83;7;POINT (16.347036457793788 48.20546524498356);https://www.geschichtewiki.wien.gv.at/?curid=29850;16.347036457793788;48.20546524498356
64;64;64;64;64;64;64;64;64;111;Theater der Jugend;Theater;1932;0;;;;Neubaugasse 36/1;7;POINT (16.3494000247669 48.20136633307758);https://www.geschichtewiki.wien.gv.at/?curid=23949;16.3494000247669;48.20136633307758
65;65;65;65;65;65;65;65;65;113;Paula-Hof;Bauwerk;1912;0;;;;Westbahnstraße 26;7;POINT (16.34448021252856 48.201915562514635);https://www.geschichtewiki.wien.gv.at/?curid=4678;16.34448021252856;48.20191556251464
66;66;66;66;66;66;66;66;66;114;Perichtoldsgadenhof;Bauwerk;1750;0;Stift Berchtesgaden;;;St.-Ulrichs-Platz 2;7;POINT (16.35290871221951 48.204565575256154);https://www.geschichtewiki.wien.gv.at/?curid=40408;16.35290871221951;48.20456557525616
67;67;67;67;67;67;67;67;67;116;Savoyische Adelige Akademie;Schule;1746;0;Maria Theresia von Savoyen-Carignan;;;Stiftgasse 2A(KASERNE);7;POINT (16.355101870428353 48.201937682942884);https://www.geschichtewiki.wien.gv.at/?curid=2627;16.355101870428353;48.20193768294288
68;68;68;68;68;68;68;68;68;117;Sozialmedizinisches Zentrum Sophienspital;Apotheke_Spital_Anstalt;1881;2017;Sophie von Bayern;;;Apollogasse 19 Pav. C;7;POINT (16.340951015615428 48.197782041220584);https://www.geschichtewiki.wien.gv.at/?curid=4249;16.340951015615428;48.19778204122058
69;69;69;69;69;69;69;69;69;119;Spittelberggasse 19;Bauwerk;1740;0;Mohren;;;Burggasse 19;7;POINT (16.354884696294747 48.20402297838828);https://www.geschichtewiki.wien.gv.at/?curid=11628;16.354884696294747;48.20402297838828
70;70;70;70;70;70;70;70;70;120;Trautsonpalais (7);Bauwerk;1712;0;Johann Leopold Donat Trautson;;;Museumstraße 7;7;POINT (16.35587958414174 48.205807427396465);https://www.geschichtewiki.wien.gv.at/?curid=25106;16.35587958414174;48.20580742739647
71;71;71;71;71;71;71;71;71;121;Schlesierhof;Bauwerk;1911;0;;;;Neustiftgasse 71;7;POINT (16.348365663672833 48.205374819250856);https://www.geschichtewiki.wien.gv.at/?curid=40480;16.348365663672833;48.205374819250856
72;72;72;72;72;72;72;72;72;123;MuseumsQuartier;Bauwerk;1719;0;;;;Museumsplatz 1(HOF E1/5);7;POINT (16.35860901616918 48.20328004107663);https://www.geschichtewiki.wien.gv.at/?curid=21030;16.35860901616918;48.20328004107663
73;73;73;73;73;73;73;73;73;124;Schmauswaberl;Bauwerk;1712;0;;;;Faßziehergasse 12;7;POINT (16.354539807280773 48.20530187079777);https://www.geschichtewiki.wien.gv.at/?curid=9892;16.354539807280773;48.20530187079777
74;74;74;74;74;74;74;74;74;125;Schottenfelder Hof;Bauwerk;1908;0;;;;Westbahnstraße 27-29(GARTENHAUS);7;POINT (16.3420580145576 48.20171381487542);https://www.geschichtewiki.wien.gv.at/?curid=12707;16.3420580145576;48.20171381487542
75;75;75;75;75;75;75;75;75;126;Stafa;Bauwerk;1911;1996;;;;Mariahilfer Straße 120;7;POINT (16.341946306155553 48.19651069497518);https://www.geschichtewiki.wien.gv.at/?curid=16069;16.341946306155553;48.19651069497518
76;76;76;76;76;76;76;76;76;127;Schottenhof (7, Neustiftgasse 30-36);Bauwerk;1629;1788;Schottenstift;;;Neustiftgasse 30;7;POINT (16.351678276390583 48.20551992939218);https://www.geschichtewiki.wien.gv.at/?curid=12850;16.351678276390583;48.20551992939218
77;77;77;77;77;77;77;77;77;128;Stefaniehof;Bauwerk;1899;0;;;;Siebensterngasse 38;7;POINT (16.352133903760897 48.20233419619064);https://www.geschichtewiki.wien.gv.at/?curid=40535;16.352133903760897;48.20233419619064
78;78;78;78;78;78;78;78;78;129;Stiftkaserne;Bauwerk;1739;0;Chaossche Stiftung;;;Stiftgasse 5-9;7;POINT (16.355575093259247 48.201103841488205);https://www.geschichtewiki.wien.gv.at/?curid=17920;16.355575093259247;48.201103841488205
79;79;79;79;79;79;79;79;79;130;Renaissancetheater;Theater;1912;0;;;;Neubaugasse 36/1;7;POINT (16.3494000247669 48.20136633307758);https://www.geschichtewiki.wien.gv.at/?curid=25621;16.3494000247669;48.20136633307758
80;80;80;80;80;80;80;80;80;131;Neubauhof;Bauwerk;1904;0;Neubaugasse;;;Neubaugasse 57;7;POINT (16.349109028130204 48.20343372979269);https://www.geschichtewiki.wien.gv.at/?curid=40387;16.349109028130204;48.20343372979269
81;81;81;81;81;81;81;81;81;132;Neudeggerhof;Bauwerk;1376;0;;;;Lerchenfelder Straße 25;7;POINT (16.351909225942467 48.206229823002204);https://www.geschichtewiki.wien.gv.at/?curid=17208;16.351909225942467;48.20622982300221
82;82;82;82;82;82;82;82;82;136;Zum schwarzen Adler (7);Bauwerk;1862;0;;;;Gutenberggasse 1-5;7;POINT (16.355538078987024 48.202832526366684);https://www.geschichtewiki.wien.gv.at/?curid=13395;16.355538078987024;48.20283252636669
83;83;83;83;83;83;83;83;83;139;Altlerchenfelder Kirche;Kirche;1848;0;;;;Mentergasse 1;7;POINT (16.343103998627786 48.20691939517632);https://www.geschichtewiki.wien.gv.at/?curid=21403;16.343103998627786;48.20691939517632
84;84;84;84;84;84;84;84;84;142;Zum verlorenen Sohn;Bauwerk;1896;0;;;;Gutenberggasse 1-5;7;POINT (16.355702061743578 48.202807137665324);https://www.geschichtewiki.wien.gv.at/?curid=3382;16.355702061743578;48.20280713766533
85;85;85;85;85;85;85;85;85;143;Zum weißen Engel (7, Spittelberggasse 12, Gutenberggasse 11);Bauwerk;1892;0;;;;Spittelberggasse 12;7;POINT (16.355428148733775 48.20314011327343);https://www.geschichtewiki.wien.gv.at/?curid=14320;16.355428148733775;48.20314011327343
86;86;86;86;86;86;86;86;86;145;Zum weißen Löwen (7);Bauwerk;1723;0;;;;Gutenberggasse 13;7;POINT (16.3556123847118 48.20330600725569);https://www.geschichtewiki.wien.gv.at/?curid=19831;16.3556123847118;48.20330600725569
87;87;87;87;87;87;87;87;87;148;Augustinbrunnen;Brunnen;1908;0;;;;Neustiftgasse 30;7;POINT (16.35165044544807 48.20558045755067);https://www.geschichtewiki.wien.gv.at/?curid=28385;16.35165044544807;48.20558045755067
88;88;88;88;88;88;88;88;88;149;Hansi-Niese-Denkmal;Denkmal;1952;0;Hansi Niese;;;Arthur-Schnitzler-Platz 1;7;POINT (16.357103015699547 48.20495404062671);https://www.geschichtewiki.wien.gv.at/?curid=20576;16.357103015699547;48.20495404062671
89;89;89;89;89;89;89;89;89;153;Zur goldenen Krone (7);Bauwerk;1700;1992;Relief einer Krone in der Fassade an der Vorderseite.;;;Siebensterngasse 19;7;POINT (16.353540488331877 48.20218506392683);https://www.geschichtewiki.wien.gv.at/?curid=55947;16.353540488331877;48.20218506392683
90;90;90;90;90;90;90;90;90;154;Hesserdenkmal;Denkmal;1909;0;Heinrich Heß (Militär);;;Neubaugürtel 14-16;7;POINT (16.338555016237578 48.19854904094482);https://www.geschichtewiki.wien.gv.at/?curid=12938;16.338555016237578;48.19854904094482
91;91;91;91;91;91;91;91;91;155;Zur goldenen Rose (7, Kirchberggasse);Bauwerk;1836;0;;;;Kirchberggasse 4;7;POINT (16.356261872142777 48.202884023042984);https://www.geschichtewiki.wien.gv.at/?curid=27733;16.356261872142777;48.20288402304298
92;92;92;92;92;92;92;92;92;157;Zachariashof;Bauwerk;1899;0;;;;Mariahilfer Straße 128;7;POINT (16.340182537424653 48.196199334795146);https://www.geschichtewiki.wien.gv.at/?curid=40583;16.340182537424653;48.196199334795146
93;93;93;93;93;93;93;93;93;159;Zentraldepot des Wiener Stadt- und Landesarchivs;Bauwerk;1958;0;;;;Kandlgasse 30;7;POINT (16.341147109052375 48.20287965052828);https://www.geschichtewiki.wien.gv.at/?curid=9316;16.341147109052375;48.20287965052828
94;94;94;94;94;94;94;94;94;160;Zita-Hof;Bauwerk;1900;0;;Hansi Niese,Josef Jarno;;Mariahilfer Straße 88A/3;7;POINT (16.346645631040598 48.19759485576941);https://www.geschichtewiki.wien.gv.at/?curid=40604;16.346645631040598;48.19759485576941
95;95;95;95;95;95;95;95;95;161;Zum goldenen Fagott;Bauwerk;1578;0;;;;Zollergasse 31;7;POINT (16.35038204518491 48.20079946212197);https://www.geschichtewiki.wien.gv.at/?curid=11853;16.35038204518491;48.20079946212197
96;96;96;96;96;96;96;96;96;163;Zum goldenen Hirschen (7);Bauwerk;1890;0;;;;Stiftgasse 18;7;POINT (16.354269990854647 48.20395985463048);https://www.geschichtewiki.wien.gv.at/?curid=15932;16.354269990854647;48.20395985463048
97;97;97;97;97;97;97;97;97;165;Zu den neun Kurfürsten;Bauwerk;1820;0;;;;Neubaugasse 16;7;POINT (16.34958235705945 48.199497788043075);https://www.geschichtewiki.wien.gv.at/?curid=25735;16.34958235705945;48.19949778804308
98;98;98;98;98;98;98;98;98;166;Zu den sieben Churfürsten;Bauwerk;1870;0;;;;Stiftgasse 4;7;POINT (16.35472620955241 48.20251852706678);https://www.geschichtewiki.wien.gv.at/?curid=19568;16.35472620955241;48.20251852706678
99;99;99;99;99;99;99;99;99;168;Zu den zwei goldenen Kreuzen;Bauwerk;1720;0;;;;Spittelberggasse 11;7;POINT (16.35502793457878 48.20354901187673);https://www.geschichtewiki.wien.gv.at/?curid=19614;16.35502793457878;48.20354901187673
100;100;100;100;100;100;100;100;100;169;Dreifaltigkeitsbrunnen (7, Breite Gasse);Brunnen;1822;1872;;;;Breite Gasse 17;7;POINT (16.356424867430505 48.204105634392896);https://www.geschichtewiki.wien.gv.at/?curid=9417;16.356424867430505;48.204105634392896
101;101;101;101;101;101;101;101;101;170;Zum goldenen Schiff;Bauwerk;1712;0;;;;Faßziehergasse 12;7;POINT (16.354539807280773 48.20530187079777);https://www.geschichtewiki.wien.gv.at/?curid=7639;16.354539807280773;48.20530187079777
102;102;102;102;102;102;102;102;102;171;Zum goldenen Stuck;Bauwerk;1688;0;;Johann Achamer;;Stuckgasse 15;7;POINT (16.350323866898908 48.203978665734766);https://www.geschichtewiki.wien.gv.at/?curid=21330;16.350323866898908;48.203978665734766
103;103;103;103;103;103;103;103;103;174;Volkstheater;Theater;1887;0;Verein des Deutschen Volkstheaters;;;Arthur-Schnitzler-Platz 1;7;POINT (16.357053732725316 48.20523201309908);https://www.geschichtewiki.wien.gv.at/?curid=6125;16.357053732725316;48.20523201309908
104;104;104;104;104;104;104;104;104;176;Zum Dattelbaum;Bauwerk;1800;0;;;;Burggasse 11;7;POINT (16.35554005803288 48.20415399086158);https://www.geschichtewiki.wien.gv.at/?curid=26756;16.35554005803288;48.20415399086158
105;105;105;105;105;105;105;105;105;177;Zum grünen Baum (7);Bauwerk;1683;1893;;;;Mariahilfer Straße 56;7;POINT (16.351936396336722 48.19921150369247);https://www.geschichtewiki.wien.gv.at/?curid=4840;16.351936396336722;48.19921150369247
106;106;106;106;106;106;106;106;106;179;Zum grünen Tor (7);Bauwerk;1696;0;;;;Lindengasse 4;7;POINT (16.354153084072202 48.20128258882193);https://www.geschichtewiki.wien.gv.at/?curid=24883;16.354153084072202;48.20128258882193
107;107;107;107;107;107;107;107;107;183;Zum heiligen Josef (Giebelhaus);Bauwerk;1750;0;;;;Gutenberggasse 29;7;POINT (16.355398782186658 48.20411291558004);https://www.geschichtewiki.wien.gv.at/?curid=20028;16.355398782186658;48.20411291558004
108;108;108;108;108;108;108;108;108;184;Zum langen Keller;Bauwerk;1690;0;;;;Burggasse 67;7;POINT (16.348269992108186 48.20416919760155);https://www.geschichtewiki.wien.gv.at/?curid=3409;16.348269992108186;48.20416919760155
109;109;109;109;109;109;109;109;109;186;Zum roten Engel;Bauwerk;1976;0;;;;Spittelberggasse 15;7;POINT (16.354978508760215 48.20377259161554);https://www.geschichtewiki.wien.gv.at/?curid=14312;16.354978508760215;48.20377259161554
110;110;110;110;110;110;110;110;110;187;Warenhaus Gerngroß;Bauwerk;1904;0;Alfred Gerngroß;;;Mariahilfer Straße 38-40;7;POINT (16.35400798896044 48.19990466848028);https://www.geschichtewiki.wien.gv.at/?curid=40201;16.35400798896044;48.19990466848028
111;111;111;111;111;111;111;111;111;188;Warenhaus Herzmansky;Bauwerk;1896;0;August Herzmansky;;;Mariahilfer Straße 26-30;7;POINT (16.35527399194739 48.20029405149742);https://www.geschichtewiki.wien.gv.at/?curid=12800;16.35527399194739;48.20029405149742
112;112;112;112;112;112;112;112;112;189;Warenhaus Stephan Esders;Bauwerk;1894;0;Stephan Esders;Stephan Esders;;Karl-Schweighofer-Gasse 1;7;POINT (16.358547384025957 48.201283704599);https://www.geschichtewiki.wien.gv.at/?curid=12944;16.358547384025957;48.201283704599
113;113;113;113;113;113;113;113;113;192;Zum blauen Hecht (7);Bauwerk;1890;0;;;;Breite Gasse 3;7;POINT (16.35684598214649 48.20316531739154);https://www.geschichtewiki.wien.gv.at/?curid=6672;16.35684598214649;48.20316531739154
114;114;114;114;114;114;114;114;114;193;Maria-Theresien-Kino;Kino;1918;0;;;;Neubaugasse 1;7;POINT (16.34971293681184 48.19832595422935);https://www.geschichtewiki.wien.gv.at/?curid=63192;16.34971293681184;48.19832595422935
115;115;115;115;115;115;115;115;115;194;Kino Mariahilfer Straße 78;Kino;1921;0;;;;Mariahilfer Straße 78-80;7;POINT (16.348400063570843 48.19787670983086);https://www.geschichtewiki.wien.gv.at/?curid=61004;16.348400063570843;48.19787670983086
116;116;116;116;116;116;116;116;116;195;Kino im Zitahof;Kino;1919;1930;;;;Mariahilfer Straße 88;7;POINT (16.347054945697366 48.19750407585019);https://www.geschichtewiki.wien.gv.at/?curid=61003;16.347054945697366;48.19750407585019
117;117;117;117;117;117;117;117;117;196;Metropol Kino;Kino;1921;0;;;;Westbahnstraße 48;7;POINT (16.34102849846706 48.20194283096979);https://www.geschichtewiki.wien.gv.at/?curid=61005;16.34102849846706;48.20194283096979
118;118;118;118;118;118;118;118;118;197;Adriakino;Kino;1909;2000;;;;Burggasse 71;7;POINT (16.346984525955985 48.20418929109753);https://www.geschichtewiki.wien.gv.at/?curid=57881;16.346984525955985;48.20418929109753
119;119;119;119;119;119;119;119;119;199;Zwangsarbeiterlager Burggasse 35;NS_Institution;1942;1945;;;;Burggasse 35;7;POINT (16.352413015429114 48.204063041199255);https://www.geschichtewiki.wien.gv.at/?curid=61353;16.352413015429114;48.204063041199255
120;120;120;120;120;120;120;120;120;200;Zur goldenen Rose (Apotheke);Apotheke_Spital_Anstalt;1783;0;;;;Neubaugasse 37;7;POINT (16.34888641091217 48.20194105861907);https://www.geschichtewiki.wien.gv.at/?curid=27970;16.34888641091217;48.20194105861907
121;121;121;121;121;121;121;121;121;201;Jüdischer Verein Neubau Chewra Binjon Chudosch;Firma_Verlag_Institution;1924;1938;;;;Schottenfeldgasse 60;7;POINT (16.343289860789852 48.20349539332644);https://www.geschichtewiki.wien.gv.at/?curid=67394;16.343289860789852;48.20349539332644
122;122;122;122;122;122;122;122;122;202;Restaurant Schöner;Bauwerk;1700;1992;Andreas Schöner;;;Siebensterngasse 19;7;POINT (16.353540488331877 48.20218506392683);https://www.geschichtewiki.wien.gv.at/?curid=56286;16.353540488331877;48.20218506392683
123;123;123;123;123;123;123;123;123;203;Vita Filmindustrie AG;Firma_Verlag_Institution;1919;1924;;;;Neubaugasse 1;7;POINT (16.349789015374565 48.19849404047659);https://www.geschichtewiki.wien.gv.at/?curid=61421;16.349789015374565;48.19849404047659
124;124;124;124;124;124;124;124;124;208;Admiralkino;Kino;1913;0;;;;Burggasse 119;7;POINT (16.338749169556518 48.20415910664866);https://www.geschichtewiki.wien.gv.at/?curid=57898;16.338749169556518;48.20415910664866
125;125;125;125;125;125;125;125;125;209;Biographen Theater Weingärtner;Kino;1907;1909;;;;Mariahilfer Straße 8;7;POINT (16.359713396007376 48.20144292132249);https://www.geschichtewiki.wien.gv.at/?curid=57878;16.359713396007376;48.20144292132249
126;126;126;126;126;126;126;126;126;210;Hackers Biographen Theater;Kino;1909;1917;;;;Neubaugasse 4;7;POINT (16.349995792875152 48.198689876695106);https://www.geschichtewiki.wien.gv.at/?curid=57888;16.349995792875152;48.19868987669511
127;127;127;127;127;127;127;127;127;211;Invalidendankkino;Kino;1919;1926;;;;Lerchenfelder Straße 143-145;7;POINT (16.339611537497706 48.2082270783302);https://www.geschichtewiki.wien.gv.at/?curid=57908;16.339611537497706;48.2082270783302
128;128;128;128;128;128;128;128;128;212;Kinematographentheater (Neubau);Kino;1909;1910;;;;Kirchengasse 43;7;POINT (16.351401399374048 48.20507003547661);https://www.geschichtewiki.wien.gv.at/?curid=57883;16.351401399374048;48.20507003547661
129;129;129;129;129;129;129;129;129;213;Kino Baier, Metropol - Uhu Kino;Kino;1909;1999;;;;Kaiserstraße 44-46/2;7;POINT (16.34074606784004 48.20131448565165);https://www.geschichtewiki.wien.gv.at/?curid=57886;16.34074606784004;48.20131448565165
130;130;130;130;130;130;130;130;130;214;Kosmos Kino;Kino;1914;1998;;;;Siebensterngasse 42-44;7;POINT (16.35132431376619 48.2023526522141);https://www.geschichtewiki.wien.gv.at/?curid=57906;16.35132431376619;48.2023526522141
131;131;131;131;131;131;131;131;131;215;Adriakino;Kino;1909;2000;;;;Burggasse 71;7;POINT (16.346984525955985 48.20418929109753);https://www.geschichtewiki.wien.gv.at/?curid=69573;16.346984525955985;48.20418929109753
132;132;132;132;132;132;132;132;132;216;Adriakino;Kino;1909;2000;;;;Burggasse 71;7;POINT (16.346984525955985 48.20418929109753);https://www.geschichtewiki.wien.gv.at/?curid=69569;16.346984525955985;48.20418929109753
133;133;133;133;133;133;133;133;133;218;Maria Theresienkino;Kino;1918;0;;;;Neubaugasse 1;7;POINT (16.34971293681184 48.19832595422935);https://www.geschichtewiki.wien.gv.at/?curid=57907;16.34971293681184;48.19832595422935
134;134;134;134;134;134;134;134;134;219;Neubauer Bürgerkino;Kino;1914;1922;;;;Neubaugasse 68;7;POINT (16.349098743038574 48.203726370566955);https://www.geschichtewiki.wien.gv.at/?curid=57905;16.349098743038574;48.20372637056696
135;135;135;135;135;135;135;135;135;220;Neubauer Kino;Kino;1910;0;;;;Lerchenfelder Straße 73;7;POINT (16.345291253399004 48.20704163947104);https://www.geschichtewiki.wien.gv.at/?curid=57892;16.345291253399004;48.20704163947104
136;136;136;136;136;136;136;136;136;221;Phönixkino;Kino;1913;0;;;;Lerchenfelder Straße 35;7;POINT (16.35055333826785 48.20622370582559);https://www.geschichtewiki.wien.gv.at/?curid=57899;16.35055333826785;48.20622370582559
137;137;137;137;137;137;137;137;137;222;Schottenfelder Lichtspiele;Kino;1913;0;;;;Schottenfeldgasse 22;7;POINT (16.34339791475963 48.198914144767286);https://www.geschichtewiki.wien.gv.at/?curid=57897;16.34339791475963;48.198914144767286
138;138;138;138;138;138;138;138;138;223;Invalidendankkino - Bellariakino;Kino;1911;0;Bellaria (1);;;Museumstraße 3;7;POINT (16.356449804810982 48.20490899484681);https://www.geschichtewiki.wien.gv.at/?curid=57896;16.356449804810982;48.20490899484681
139;139;139;139;139;139;139;139;139;224;E. P. Tal & Co. Verlag;Firma_Verlag_Institution;1919;1939;Ernst Peter Tal;;;Lindengasse 4;7;POINT (16.354153084072202 48.20128258882193);https://www.geschichtewiki.wien.gv.at/?curid=69237;16.354153084072202;48.20128258882193
140;140;140;140;140;140;140;140;140;225;Kino Mariahilfer Straße 78;Kino;1921;0;;;;Mariahilfer Straße 78-80;7;POINT (16.348400063570843 48.19787670983086);https://www.geschichtewiki.wien.gv.at/?curid=69797;16.348400063570843;48.19787670983086
141;141;141;141;141;141;141;141;141;226;Verlag Aufschwung;Firma_Verlag_Institution;1919;1919;;;;Kaiserstraße 62;7;POINT (16.340342389892953 48.2033895988408);https://www.geschichtewiki.wien.gv.at/?curid=69821;16.340342389892953;48.2033895988408
142;142;142;142;142;142;142;142;142;227;Zum göttlichen Heiland (Kloster);Kirche;1863;0;;;;Kaiserstraße 25 Kirche;7;POINT (16.340743053609287 48.1992065620203);https://www.geschichtewiki.wien.gv.at/?curid=7321;16.340743053609287;48.1992065620203
143;143;143;143;143;143;143;143;143;228;Zwangsarbeiterlager Apollogasse 20;NS_Institution;1944;1945;;;;Apollogasse 20;7;POINT (16.342009015232033 48.19812304069634);https://www.geschichtewiki.wien.gv.at/?curid=61437;16.342009015232033;48.19812304069634
144;144;144;144;144;144;144;144;144;230;VS/HS Lerchenfelder Straße 61;Schule;1865;1935;;;;Lerchenfelder Straße 61/1;7;POINT (16.347281015940023 48.20667004095614);https://www.geschichtewiki.wien.gv.at/?curid=70091;16.347281015940023;48.20667004095614
145;145;145;145;145;145;145;145;145;232;WMS Neustiftgasse 98-102;Schule;1891;0;;;;Neustiftgasse 98(SCHULE);7;POINT (16.341664446696182 48.20601124790739);https://www.geschichtewiki.wien.gv.at/?curid=68590;16.341664446696182;48.20601124790739
146;146;146;146;146;146;146;146;146;233;Notre Dame de Sion;Firma_Verlag_Institution;1843;0;;;;Burggasse 35;7;POINT (16.352409161115183 48.20406751227791);https://www.geschichtewiki.wien.gv.at/?curid=22006;16.352409161115183;48.20406751227791
147;147;147;147;147;147;147;147;147;234;Mariahilfer Zentralpalast - Stafa Kino;Kino;1920;0;;;;Mariahilfer Straße 120;7;POINT (16.341946306155553 48.19651069497518);https://www.geschichtewiki.wien.gv.at/?curid=57909;16.341946306155553;48.19651069497518
148;148;148;148;148;148;148;148;148;236;NSDAP-Ortsgruppe Am Neubau;NS_Institution;1938;1945;;;;Neubaugasse 64-66/2;7;POINT (16.34912701511954 48.203434040725256);https://www.geschichtewiki.wien.gv.at/?curid=59081;16.34912701511954;48.203434040725256
149;149;149;149;149;149;149;149;149;237;NSDAP-Ortsgruppe Brillantengrund;NS_Institution;1938;1945;;;;Döblergasse 2;7;POINT (16.349936015519283 48.20564604073906);https://www.geschichtewiki.wien.gv.at/?curid=59083;16.349936015519283;48.20564604073906
150;150;150;150;150;150;150;150;150;238;Erika-Kino;Kino;1909;1999;;;;Kaiserstraße 44-46/2;7;POINT (16.34074606784004 48.20131448565165);https://www.geschichtewiki.wien.gv.at/?curid=13921;16.34074606784004;48.20131448565165
151;151;151;151;151;151;151;151;151;239;Wiener Kunstfilm-Industrie;Firma_Verlag_Institution;1910;1920;;;;Museumstraße 7;7;POINT (16.355850015531527 48.20592704054735);https://www.geschichtewiki.wien.gv.at/?curid=56294;16.355850015531527;48.20592704054735
152;152;152;152;152;152;152;152;152;275;Zum weißen Hirschen (Apotheke);Apotheke_Spital_Anstalt;1788;0;;;;Westbahnstraße 32-34;7;POINT (16.343470043725773 48.20192354547344);https://www.geschichtewiki.wien.gv.at/?curid=15945;16.343470043725773;48.20192354547344
153;153;153;153;153;153;153;153;153;281;Lager Burggasse 37;NS_Institution;1942;1945;;;;Burggasse 37(SCHULE);7;POINT (16.352131015342053 48.20402304114645);https://www.geschichtewiki.wien.gv.at/?curid=60552;16.352131015342053;48.20402304114645
154;154;154;154;154;154;154;154;154;282;Lager Burggasse 70;NS_Institution;1942;1945;;;;Burggasse 70;7;POINT (16.3472490159 48.20438404111671);https://www.geschichtewiki.wien.gv.at/?curid=60553;16.3472490159;48.20438404111671
155;155;155;155;155;155;155;155;155;283;Lager Halbgasse 11;NS_Institution;1942;1945;;;;Halbgasse 11;7;POINT (16.341422015625923 48.20400704089033);https://www.geschichtewiki.wien.gv.at/?curid=60554;16.341422015625923;48.20400704089033
156;156;156;156;156;156;156;156;156;284;Lager Kandlgasse 11;NS_Institution;1942;1945;;;;Kandlgasse 11;7;POINT (16.34396201581381 48.20268804092471);https://www.geschichtewiki.wien.gv.at/?curid=60557;16.34396201581381;48.20268804092471
157;157;157;157;157;157;157;157;157;285;Lager Kandlgasse 9;NS_Institution;1942;1945;;;;Kandlgasse 9;7;POINT (16.344271015279606 48.20268204076548);https://www.geschichtewiki.wien.gv.at/?curid=60556;16.344271015279606;48.20268204076548
158;158;158;158;158;158;158;158;158;286;Lager Mariahilfer Straße 88A;NS_Institution;1942;1945;;;;Mariahilfer Straße 88A/3;7;POINT (16.346647015985358 48.19759204075968);https://www.geschichtewiki.wien.gv.at/?curid=60544;16.346647015985358;48.19759204075968
159;159;159;159;159;159;159;159;159;287;Lager Mechitaristengasse 4;NS_Institution;1942;1945;;;;Mechitaristengasse 4;7;POINT (16.35420001547217 48.20595104122173);https://www.geschichtewiki.wien.gv.at/?curid=60558;16.35420001547217;48.20595104122173
160;160;160;160;160;160;160;160;160;289;Lager Neubaugasse 64-66;NS_Institution;1942;1945;;;;Neubaugasse 57;7;POINT (16.349111016084453 48.20343204064015);https://www.geschichtewiki.wien.gv.at/?curid=60560;16.349111016084453;48.20343204064015
161;161;161;161;161;161;161;161;161;290;Lager Seidengasse 28;NS_Institution;1942;1945;;;;Seidengasse 28;7;POINT (16.34198601557504 48.20045104120699);https://www.geschichtewiki.wien.gv.at/?curid=60561;16.34198601557504;48.20045104120699
162;162;162;162;162;162;162;162;162;295;Karl-Farkas-Park;Park;1979;0;Karl Farkas;;;Burggasse 76/2;7;POINT (16.34626527806726 48.20471950740786);https://www.geschichtewiki.wien.gv.at/?curid=25827;16.34626527806726;48.20471950740786
163;163;163;163;163;163;163;163;163;298;Lager Messepalast;NS_Institution;1942;1945;;;;Museumsplatz 1(HOF E7/1);7;POINT (16.357373015326196 48.20464404044743);https://www.geschichtewiki.wien.gv.at/?curid=60570;16.357373015326196;48.20464404044743
164;164;164;164;164;164;164;164;164;301;Weghuberpark;Park;1865;0;Albert Weghuber;;;Museumstraße 7;7;POINT (16.35555778334869 48.20620102567851);https://www.geschichtewiki.wien.gv.at/?curid=5740;16.35555778334869;48.20620102567851
165;165;165;165;165;165;165;165;165;302;NSDAP-Ortsgruppe Lerchenfeld;NS_Institution;1938;1945;;;;Wimbergergasse 30;7;POINT (16.33853601560609 48.20542404082241);https://www.geschichtewiki.wien.gv.at/?curid=59092;16.33853601560609;48.20542404082241
166;166;166;166;166;166;166;166;166;304;Marianne-Fritz-Park;Park;2013;0;Marianne Fritz;;;Lindengasse 60;7;POINT (16.344868979027645 48.199429894292514);https://www.geschichtewiki.wien.gv.at/?curid=33493;16.344868979027645;48.199429894292514
167;167;167;167;167;167;167;167;167;305;Gutenbergpark;Park;1992;0;;;;Gutenberggasse 21;7;POINT (16.355647793014835 48.203729941986616);https://www.geschichtewiki.wien.gv.at/?curid=29191;16.355647793014835;48.203729941986616
168;168;168;168;168;168;168;168;168;309;Neubauer Kinderpark;Park;1904;1928;;;;Bandgasse 21;7;POINT (16.345804871697446 48.2024336485712);https://www.geschichtewiki.wien.gv.at/?curid=17013;16.345804871697446;48.2024336485712
169;169;169;169;169;169;169;169;169;319;MS Neubaugasse 42;Schule;1887;0;;;;Neubaugasse 42(SCHULE);7;POINT (16.34919202228352 48.20179884134287);https://www.geschichtewiki.wien.gv.at/?curid=68487;16.34919202228352;48.20179884134287
170;170;170;170;170;170;170;170;170;320;PTS Burggasse 14-16;Schule;2009;0;;;;Burggasse 14-16;7;POINT (16.354192185866353 48.2042151845777);https://www.geschichtewiki.wien.gv.at/?curid=68822;16.354192185866353;48.2042151845777
171;171;171;171;171;171;171;171;171;321;VS Burggasse 20;Schule;1866;1884;;;;Burggasse 20/2;7;POINT (16.353442015315625 48.20424704066904);https://www.geschichtewiki.wien.gv.at/?curid=70070;16.353442015315625;48.20424704066904
172;172;172;172;172;172;172;172;172;322;VS Kandlgasse 30;Schule;1877;1956;;;;Kandlgasse 30;7;POINT (16.341158015716267 48.20285504098191);https://www.geschichtewiki.wien.gv.at/?curid=70121;16.341158015716267;48.20285504098191
173;173;173;173;173;173;173;173;173;323;VS Neubaugasse 25;Schule;1864;1891;;;;Neubaugasse 25/1;7;POINT (16.348976016331857 48.20083404130371);https://www.geschichtewiki.wien.gv.at/?curid=70072;16.348976016331857;48.20083404130371
174;174;174;174;174;174;174;174;174;324;VS Neustiftgasse 98-102;Schule;1887;0;;;;Neustiftgasse 98(SCHULE);7;POINT (16.341664446696182 48.20601124790739);https://www.geschichtewiki.wien.gv.at/?curid=68554;16.341664446696182;48.20601124790739
175;175;175;175;175;175;175;175;175;327;VS Zollergasse 41;Schule;1883;1957;;;;Zollergasse 41(SCHULE);7;POINT (16.35017001636822 48.20179904084544);https://www.geschichtewiki.wien.gv.at/?curid=70112;16.35017001636822;48.20179904084544
176;176;176;176;176;176;176;176;176;328;Wohnhaus Bernardgasse;Bauwerk;1925;0;Bernardgasse;;;Bernardgasse 38/1;7;POINT (16.33888602578309 48.20732831553085);https://www.geschichtewiki.wien.gv.at/?curid=62738;16.33888602578309;48.20732831553085
177;177;177;177;177;177;177;177;177;329;Wohnhaus Neustiftgasse;Bauwerk;1925;0;Neustiftgasse;;;Neustiftgasse 143/1;7;POINT (16.338929543731112 48.20597555396534);https://www.geschichtewiki.wien.gv.at/?curid=62739;16.338929543731112;48.20597555396534
178;178;178;178;178;178;178;178;178;330;Verlag der Wiener Graphischen Werkstätte;Firma_Verlag_Institution;1918;1930;;;;Kaiserstraße 45/1;7;POINT (16.34043006512766 48.201309821420296);https://www.geschichtewiki.wien.gv.at/?curid=69264;16.34043006512766;48.201309821420296
179;179;179;179;179;179;179;179;179;331;Atelier Setzer-Tschiedel;Firma_Verlag_Institution;1909;1979;;;;Neustiftgasse 3;7;POINT (16.35617105430219 48.20527317944676);https://www.geschichtewiki.wien.gv.at/?curid=70573;16.35617105430219;48.20527317944676
180;180;180;180;180;180;180;180;180;332;Non Stop Kino;Kino;1913;0;;;;Museumsplatz 1(HOF E3/10);7;POINT (16.36021437700146 48.20173788535905);https://www.geschichtewiki.wien.gv.at/?curid=66803;16.36021437700146;48.20173788535905
